ONEWEB-0474             
1 51654U 22012AJ  23302.52278385 -.00000558  00000+0 -16362-2 0  9997
2 51654  87.8991 227.2252 0001943  63.0566 297.0760 13.10370902 83356
ONEWEB-0475             
1 51655U 22012AK  23302.41370276  .00000050  00000+0  94943-4 0  9996
2 51655  87.9256 197.0336 0002067  63.5359 296.5985 13.17646794 87036
ONEWEB-0490             
1 54113U 22138A   23302.55019723  .00008734  00000+0  21778-1 0  9999
2 54113  87.9181 136.3803 0001400 106.6561 253.4725 13.19681638 49999
ONEWEB-0492             
1 54114U 22138B   23302.57547050  .00000248  00000+0  58817-3 0  9999
2 54114  87.9179 136.3700 0001639  71.1897 288.9413 13.19724369 50005
ONEWEB-0495             
1 54115U 22138C   23302.55335563  .00008576  00000+0  21380-1 0  9997
2 54115  87.9180 136.3861 0001500  81.9935 278.1368 13.19687338 49984
ONEWEB-0497             
1 54116U 22138D   23302.56599327  .00000854  00000+0  21009-2 0  9999
2 54116  87.9183 136.3769 0001662  82.7141 277.4181 13.19721367 49977
ONEWEB-0499             
1 54117U 22138E   23302.54861014  .00000226  00000+0  53217-3 0  9993
2 54117  87.9177 136.3773 0002539  86.1592 273.9831 13.19726678 49982
ONEWEB-0500             
1 54118U 22138F   23302.55178354  .00002693  00000+0  66927-2 0  9994
2 54118  87.9182 136.3740 0001531  83.4542 276.6765 13.19713324 49990
