<?xml version="1.0" encoding="UTF-8"?>
<ndm xmlns:xsi="http://www.w3.org/2001/XMLSchema-instance" xsi:noNamespaceSchemaLocation="https://sanaregistry.org/r/ndmxml_unqualified/ndmxml-2.0.0-master-2.0.xsd">
<omm id="CCSDS_OMM_VERS" version="2.0">
<header><CREATION_DATE/><ORIGINATOR/></header><body><segment><metadata><OBJECT_NAME>ONEWEB-0474</OBJECT_NAME><OBJECT_ID>2022-012AJ</OBJECT_ID><CENTER_NAME>EARTH</CENTER_NAME><REF_FRAME>TEME</REF_FRAME><TIME_SYSTEM>UTC</TIME_SYSTEM><MEAN_ELEMENT_THEORY>SGP4</MEAN_ELEMENT_THEORY></metadata><data><meanElements><EPOCH>2023-10-29T12:32:48.524640</EPOCH><MEAN_MOTION>13.10370902</MEAN_MOTION><ECCENTRICITY>.0001943</ECCENTRICITY><INCLINATION>87.8991</INCLINATION><RA_OF_ASC_NODE>227.2252</RA_OF_ASC_NODE><ARG_OF_PERICENTER>63.0566</ARG_OF_PERICENTER><MEAN_ANOMALY>297.0760</MEAN_ANOMALY></meanElements><tleParameters><EPHEMERIS_TYPE>0</EPHEMERIS_TYPE><CLASSIFICATION_TYPE>U</CLASSIFICATION_TYPE><NORAD_CAT_ID>51654</NORAD_CAT_ID><ELEMENT_SET_NO>999</ELEMENT_SET_NO><REV_AT_EPOCH>8335</REV_AT_EPOCH><BSTAR>-.16362E-2</BSTAR><MEAN_MOTION_DOT>-.558E-5</MEAN_MOTION_DOT><MEAN_MOTION_DDOT>0</MEAN_MOTION_DDOT></tleParameters></data></segment></body></omm>
<omm id="CCSDS_OMM_VERS" version="2.0">
<header><CREATION_DATE/><ORIGINATOR/></header><body><segment><metadata><OBJECT_NAME>ONEWEB-0475</OBJECT_NAME><OBJECT_ID>2022-012AK</OBJECT_ID><CENTER_NAME>EARTH</CENTER_NAME><REF_FRAME>TEME</REF_FRAME><TIME_SYSTEM>UTC</TIME_SYSTEM><MEAN_ELEMENT_THEORY>SGP4</MEAN_ELEMENT_THEORY></metadata><data><meanElements><EPOCH>2023-10-29T09:55:43.918464</EPOCH><MEAN_MOTION>13.17646794</MEAN_MOTION><ECCENTRICITY>.0002067</ECCENTRICITY><INCLINATION>87.9256</INCLINATION><RA_OF_ASC_NODE>197.0336</RA_OF_ASC_NODE><ARG_OF_PERICENTER>63.5359</ARG_OF_PERICENTER><MEAN_ANOMALY>296.5985</MEAN_ANOMALY></meanElements><tleParameters><EPHEMERIS_TYPE>0</EPHEMERIS_TYPE><CLASSIFICATION_TYPE>U</CLASSIFICATION_TYPE><NORAD_CAT_ID>51655</NORAD_CAT_ID><ELEMENT_SET_NO>999</ELEMENT_SET_NO><REV_AT_EPOCH>8703</REV_AT_EPOCH><BSTAR>.94943E-4</BSTAR><MEAN_MOTION_DOT>.5E-6</MEAN_MOTION_DOT><MEAN_MOTION_DDOT>0</MEAN_MOTION_DDOT></tleParameters></data></segment></body></omm>
<omm id="CCSDS_OMM_VERS" version="2.0">
<header><CREATION_DATE/><ORIGINATOR/></header><body><segment><metadata><OBJECT_NAME>ONEWEB-0490</OBJECT_NAME><OBJECT_ID>2022-138A</OBJECT_ID><CENTER_NAME>EARTH</CENTER_NAME><REF_FRAME>TEME</REF_FRAME><TIME_SYSTEM>UTC</TIME_SYSTEM><MEAN_ELEMENT_THEORY>SGP4</MEAN_ELEMENT_THEORY></metadata><data><meanElements><EPOCH>2023-10-29T13:12:17.040672</EPOCH><MEAN_MOTION>13.19681638</MEAN_MOTION><ECCENTRICITY>.00014</ECCENTRICITY><INCLINATION>87.9181</INCLINATION><RA_OF_ASC_NODE>136.3803</RA_OF_ASC_NODE><ARG_OF_PERICENTER>106.6561</ARG_OF_PERICENTER><MEAN_ANOMALY>253.4725</MEAN_ANOMALY></meanElements><tleParameters><EPHEMERIS_TYPE>0</EPHEMERIS_TYPE><CLASSIFICATION_TYPE>U</CLASSIFICATION_TYPE><NORAD_CAT_ID>54113</NORAD_CAT_ID><ELEMENT_SET_NO>999</ELEMENT_SET_NO><REV_AT_EPOCH>4999</REV_AT_EPOCH><BSTAR>.21778E-1</BSTAR><MEAN_MOTION_DOT>.8734E-4</MEAN_MOTION_DOT><MEAN_MOTION_DDOT>0</MEAN_MOTION_DDOT></tleParameters></data></segment></body></omm>
<omm id="CCSDS_OMM_VERS" version="2.0">
<header><CREATION_DATE/><ORIGINATOR/></header><body><segment><metadata><OBJECT_NAME>ONEWEB-0492</OBJECT_NAME><OBJECT_ID>2022-138B</OBJECT_ID><CENTER_NAME>EARTH</CENTER_NAME><REF_FRAME>TEME</REF_FRAME><TIME_SYSTEM>UTC</TIME_SYSTEM><MEAN_ELEMENT_THEORY>SGP4</MEAN_ELEMENT_THEORY></metadata><data><meanElements><EPOCH>2023-10-29T13:48:40.651200</EPOCH><MEAN_MOTION>13.19724369</MEAN_MOTION><ECCENTRICITY>.0001639</ECCENTRICITY><INCLINATION>87.9179</INCLINATION><RA_OF_ASC_NODE>136.3700</RA_OF_ASC_NODE><ARG_OF_PERICENTER>71.1897</ARG_OF_PERICENTER><MEAN_ANOMALY>288.9413</MEAN_ANOMALY></meanElements><tleParameters><EPHEMERIS_TYPE>0</EPHEMERIS_TYPE><CLASSIFICATION_TYPE>U</CLASSIFICATION_TYPE><NORAD_CAT_ID>54114</NORAD_CAT_ID><ELEMENT_SET_NO>999</ELEMENT_SET_NO><REV_AT_EPOCH>5000</REV_AT_EPOCH><BSTAR>.58817E-3</BSTAR><MEAN_MOTION_DOT>.248E-5</MEAN_MOTION_DOT><MEAN_MOTION_DDOT>0</MEAN_MOTION_DDOT></tleParameters></data></segment></body></omm>
<omm id="CCSDS_OMM_VERS" version="2.0">
<header><CREATION_DATE/><ORIGINATOR/></header><body><segment><metadata><OBJECT_NAME>ONEWEB-0495</OBJECT_NAME><OBJECT_ID>2022-138C</OBJECT_ID><CENTER_NAME>EARTH</CENTER_NAME><REF_FRAME>TEME</REF_FRAME><TIME_SYSTEM>UTC</TIME_SYSTEM><MEAN_ELEMENT_THEORY>SGP4</MEAN_ELEMENT_THEORY></metadata><data><meanElements><EPOCH>2023-10-29T13:16:49.926432</EPOCH><MEAN_MOTION>13.19687338</MEAN_MOTION><ECCENTRICITY>.00015</ECCENTRICITY><INCLINATION>87.9180</INCLINATION><RA_OF_ASC_NODE>136.3861</RA_OF_ASC_NODE><ARG_OF_PERICENTER>81.9935</ARG_OF_PERICENTER><MEAN_ANOMALY>278.1368</MEAN_ANOMALY></meanElements><tleParameters><EPHEMERIS_TYPE>0</EPHEMERIS_TYPE><CLASSIFICATION_TYPE>U</CLASSIFICATION_TYPE><NORAD_CAT_ID>54115</NORAD_CAT_ID><ELEMENT_SET_NO>999</ELEMENT_SET_NO><REV_AT_EPOCH>4998</REV_AT_EPOCH><BSTAR>.2138E-1</BSTAR><MEAN_MOTION_DOT>.8576E-4</MEAN_MOTION_DOT><MEAN_MOTION_DDOT>0</MEAN_MOTION_DDOT></tleParameters></data></segment></body></omm>
<omm id="CCSDS_OMM_VERS" version="2.0">
<header><CREATION_DATE/><ORIGINATOR/></header><body><segment><metadata><OBJECT_NAME>ONEWEB-0497</OBJECT_NAME><OBJECT_ID>2022-138D</OBJECT_ID><CENTER_NAME>EARTH</CENTER_NAME><REF_FRAME>TEME</REF_FRAME><TIME_SYSTEM>UTC</TIME_SYSTEM><MEAN_ELEMENT_THEORY>SGP4</MEAN_ELEMENT_THEORY></metadata><data><meanElements><EPOCH>2023-10-29T13:35:01.818528</EPOCH><MEAN_MOTION>13.19721367</MEAN_MOTION><ECCENTRICITY>.0001662</ECCENTRICITY><INCLINATION>87.9183</INCLINATION><RA_OF_ASC_NODE>136.3769</RA_OF_ASC_NODE><ARG_OF_PERICENTER>82.7141</ARG_OF_PERICENTER><MEAN_ANOMALY>277.4181</MEAN_ANOMALY></meanElements><tleParameters><EPHEMERIS_TYPE>0</EPHEMERIS_TYPE><CLASSIFICATION_TYPE>U</CLASSIFICATION_TYPE><NORAD_CAT_ID>54116</NORAD_CAT_ID><ELEMENT_SET_NO>999</ELEMENT_SET_NO><REV_AT_EPOCH>4997</REV_AT_EPOCH><BSTAR>.21009E-2</BSTAR><MEAN_MOTION_DOT>.854E-5</MEAN_MOTION_DOT><MEAN_MOTION_DDOT>0</MEAN_MOTION_DDOT></tleParameters></data></segment></body></omm>
<omm id="CCSDS_OMM_VERS" version="2.0">
<header><CREATION_DATE/><ORIGINATOR/></header><body><segment><metadata><OBJECT_NAME>ONEWEB-0499</OBJECT_NAME><OBJECT_ID>2022-138E</OBJECT_ID><CENTER_NAME>EARTH</CENTER_NAME><REF_FRAME>TEME</REF_FRAME><TIME_SYSTEM>UTC</TIME_SYSTEM><MEAN_ELEMENT_THEORY>SGP4</MEAN_ELEMENT_THEORY></metadata><data><meanElements><EPOCH>2023-10-29T13:09:59.916096</EPOCH><MEAN_MOTION>13.19726678</MEAN_MOTION><ECCENTRICITY>.0002539</ECCENTRICITY><INCLINATION>87.9177</INCLINATION><RA_OF_ASC_NODE>136.3773</RA_OF_ASC_NODE><ARG_OF_PERICENTER>86.1592</ARG_OF_PERICENTER><MEAN_ANOMALY>273.9831</MEAN_ANOMALY></meanElements><tleParameters><EPHEMERIS_TYPE>0</EPHEMERIS_TYPE><CLASSIFICATION_TYPE>U</CLASSIFICATION_TYPE><NORAD_CAT_ID>54117</NORAD_CAT_ID><ELEMENT_SET_NO>999</ELEMENT_SET_NO><REV_AT_EPOCH>4998</REV_AT_EPOCH><BSTAR>.53217E-3</BSTAR><MEAN_MOTION_DOT>.226E-5</MEAN_MOTION_DOT><MEAN_MOTION_DDOT>0</MEAN_MOTION_DDOT></tleParameters></data></segment></body></omm>
<omm id="CCSDS_OMM_VERS" version="2.0">
<header><CREATION_DATE/><ORIGINATOR/></header><body><segment><metadata><OBJECT_NAME>ONEWEB-0500</OBJECT_NAME><OBJECT_ID>2022-138F</OBJECT_ID><CENTER_NAME>EARTH</CENTER_NAME><REF_FRAME>TEME</REF_FRAME><TIME_SYSTEM>UTC</TIME_SYSTEM><MEAN_ELEMENT_THEORY>SGP4</MEAN_ELEMENT_THEORY></metadata><data><meanElements><EPOCH>2023-10-29T13:14:34.097856</EPOCH><MEAN_MOTION>13.19713324</MEAN_MOTION><ECCENTRICITY>.0001531</ECCENTRICITY><INCLINATION>87.9182</INCLINATION><RA_OF_ASC_NODE>136.3740</RA_OF_ASC_NODE><ARG_OF_PERICENTER>83.4542</ARG_OF_PERICENTER><MEAN_ANOMALY>276.6765</MEAN_ANOMALY></meanElements><tleParameters><EPHEMERIS_TYPE>0</EPHEMERIS_TYPE><CLASSIFICATION_TYPE>U</CLASSIFICATION_TYPE><NORAD_CAT_ID>54118</NORAD_CAT_ID><ELEMENT_SET_NO>999</ELEMENT_SET_NO><REV_AT_EPOCH>4999</REV_AT_EPOCH><BSTAR>.66927E-2</BSTAR><MEAN_MOTION_DOT>.2693E-4</MEAN_MOTION_DOT><MEAN_MOTION_DDOT>0</MEAN_MOTION_DDOT></tleParameters></data></segment></body></omm>

</ndm>
